{
  "norad_id": 67093,
  "name": "STARLINK-35784",
  "history": [
    {
      "epoch": "2026-03-28T22:54:42.293952Z",
      "apogee_km": 571.4504590131983,
      "perigee_km": 567.6350711933947,
      "latitude_deg": 8.186620571112406e-05,
      "longitude_deg": 155.81691681608592,
      "height_km": 572.0561081164994,
      "semi_major_axis_km": 6947.679765103297,
      "eccentricity": 0.00027458,
      "inclination_deg": 70.0014,
      "raan_deg": 325.8608,
      "arg_perigee_deg": 267.4413,
      "mean_anomaly_deg": 92.6433,
      "mean_motion_rev_day": 14.99143041
    },
    {
      "epoch": "2026-03-29T02:06:52.011936Z",
      "apogee_km": 571.5392319657285,
      "perigee_km": 567.560986327032,
      "latitude_deg": -4.4358640214611866e-05,
      "longitude_deg": 107.30814936335743,
      "height_km": 572.0246157496604,
      "semi_major_axis_km": 6947.68710914638,
      "eccentricity": 0.0002863,
      "inclination_deg": 70.0015,
      "raan_deg": 325.5241,
      "arg_perigee_deg": 268.6692,
      "mean_anomaly_deg": 91.4139,
      "mean_motion_rev_day": 14.99140664
    },
    {
      "epoch": "2026-03-30T02:08:06.933696Z",
      "apogee_km": 571.7293712004957,
      "perigee_km": 567.4359583564492,
      "latitude_deg": -3.9158184642026244e-05,
      "longitude_deg": 103.48277813270543,
      "height_km": 571.9742069455241,
      "semi_major_axis_km": 6947.719664778472,
      "eccentricity": 0.00030898,
      "inclination_deg": 70.0009,
      "raan_deg": 322.9974,
      "arg_perigee_deg": 270.9856,
      "mean_anomaly_deg": 89.0949,
      "mean_motion_rev_day": 14.99130127
    },
    {
      "epoch": "2026-03-30T14:56:47.099904Z",
      "apogee_km": 571.7042479155771,
      "perigee_km": 567.4533574788547,
      "latitude_deg": 1.1432879633743301e-05,
      "longitude_deg": -90.55809767227089,
      "height_km": 572.0123414189625,
      "semi_major_axis_km": 6947.715802697216,
      "eccentricity": 0.00030592,
      "inclination_deg": 70.0008,
      "raan_deg": 321.65,
      "arg_perigee_deg": 269.8624,
      "mean_anomaly_deg": 90.2185,
      "mean_motion_rev_day": 14.99131377
    },
    {
      "epoch": "2026-03-30T21:21:07.057728Z",
      "apogee_km": 571.7161973843104,
      "perigee_km": 567.4295993312217,
      "latitude_deg": 4.496000966007754e-06,
      "longitude_deg": 172.42177618741687,
      "height_km": 571.9750403886567,
      "semi_major_axis_km": 6947.709898357765,
      "eccentricity": 0.00030849,
      "inclination_deg": 70.0007,
      "raan_deg": 320.9761,
      "arg_perigee_deg": 270.7033,
      "mean_anomaly_deg": 89.3773,
      "mean_motion_rev_day": 14.99133288
    },
    {
      "epoch": "2026-03-31T21:22:21.506880Z",
      "apogee_km": 571.6621541842151,
      "perigee_km": 567.42545842853,
      "latitude_deg": -4.756343207861109e-06,
      "longitude_deg": 168.5981751288736,
      "height_km": 571.9753061149863,
      "semi_major_axis_km": 6947.680806306373,
      "eccentricity": 0.0003049,
      "inclination_deg": 70.0005,
      "raan_deg": 318.4492,
      "arg_perigee_deg": 269.9166,
      "mean_anomaly_deg": 90.1644,
      "mean_motion_rev_day": 14.99142704
    },
    {
      "epoch": "2026-04-01T21:23:35.627712Z",
      "apogee_km": 571.608069155157,
      "perigee_km": 567.4269706650748,
      "latitude_deg": -6.717419983562331e-05,
      "longitude_deg": 164.77572644731828,
      "height_km": 571.9845600746343,
      "semi_major_axis_km": 6947.654519910116,
      "eccentricity": 0.0003009,
      "inclination_deg": 70.0012,
      "raan_deg": 315.9221,
      "arg_perigee_deg": 268.9422,
      "mean_anomaly_deg": 91.1392,
      "mean_motion_rev_day": 14.99151212
    },
    {
      "epoch": "2026-04-02T21:24:48.704832Z",
      "apogee_km": 571.4734227060244,
      "perigee_km": 567.4132567554861,
      "latitude_deg": 1.8583660877699108e-05,
      "longitude_deg": 160.95719160993417,
      "height_km": 571.935656963547,
      "semi_major_axis_km": 6947.5803397307545,
      "eccentricity": 0.0002922,
      "inclination_deg": 70.0009,
      "raan_deg": 313.3945,
      "arg_perigee_deg": 268.1946,
      "mean_anomaly_deg": 91.8879,
      "mean_motion_rev_day": 14.99175222
    },
    {
      "epoch": "2026-04-02T23:00:53.617824Z",
      "apogee_km": 571.5243023612611,
      "perigee_km": 567.3810377856171,
      "latitude_deg": 1.0214225114632658e-05,
      "longitude_deg": 136.70235211491678,
      "height_km": 571.9340024493888,
      "semi_major_axis_km": 6947.589670073439,
      "eccentricity": 0.00029818,
      "inclination_deg": 70.0009,
      "raan_deg": 313.2259,
      "arg_perigee_deg": 268.5363,
      "mean_anomaly_deg": 91.5455,
      "mean_motion_rev_day": 14.99172202
    },
    {
      "epoch": "2026-04-03T16:37:48.180000Z",
      "apogee_km": 572.0875268047876,
      "perigee_km": 567.0101579911643,
      "latitude_deg": -9.728352943044993e-06,
      "longitude_deg": -130.1015262845419,
      "height_km": 572.0823675050401,
      "semi_major_axis_km": 6947.685842397976,
      "eccentricity": 0.0003654,
      "inclination_deg": 70.001,
      "raan_deg": 311.3728,
      "arg_perigee_deg": 267.641,
      "mean_anomaly_deg": 92.4331,
      "mean_motion_rev_day": 14.99141074
    }
  ]
}